SES-9                   
1 41380U 16013A   20045.88648664 -.00000359  00000-0  00000+0 0  9995
2 41380   0.0486 283.2854 0001151 110.2499 178.2463  1.00271158 14542
SES-10                  
1 42432U 17017A   20046.48961455 -.00000287  00000-0  00000+0 0  9992
2 42432   0.0150  93.1910 0002544 240.2395 280.8574  1.00270421 10547
SES-15                  
1 42709U 17026A   20045.42341311  .00000046  00000-0  00000+0 0  9997
2 42709   0.0143  92.7250 0000696 264.5448 169.8783  1.00271469 10970
SES-11 (ECHOSTAR 105)   
1 42967U 17063A   20046.06110234 -.00000103  00000-0  00000+0 0  9998
2 42967   0.0104 168.3487 0002618 162.5536  90.6497  1.00272479  8608
SES-14                  
1 43175U 18012B   20046.35541095 -.00000293  00000-0  00000+0 0  9990
2 43175   0.0136 104.1100 0000882 235.4158 245.7461  1.00270788  7857
O3B FM15                
1 43231U 18024A   20045.35946865 -.00000022  00000-0  00000-0 0  9990
2 43231   0.0479   3.6958 0002846 324.0150  32.2657  5.00115164 35366
O3B FM16                
1 43232U 18024B   20044.81310894 -.00000022  00000-0  00000-0 0  9998
2 43232   0.0518   2.1527 0002818 325.2524  32.5714  5.00115198 35346
O3B FM14                
1 43233U 18024C   20045.25330977 -.00000022  00000-0  00000-0 0  9992
2 43233   0.0533   2.3099 0002635 325.5961  32.0719  5.00116417 35362
O3B FM13                
1 43234U 18024D   20043.66768481 -.00000020  00000-0  00000-0 0  9999
2 43234   0.0311 336.9783 0004199  27.9692 355.0507  5.00115826 35270
SES-12                  
1 43488U 18049A   20045.84979985 -.00000283  00000-0  00000-0 0  9993
2 43488   0.0200  74.7788 0002262 217.6128 252.8351  1.00271511  6225
O3B FM20                
1 44112U 19020A   20044.67969533 -.00000021  00000-0  00000-0 0  9996
2 44112   0.0447   5.1429 0002792 328.9417  25.8954  5.00116726 15810
O3B FM19                
1 44113U 19020B   20043.66767986 -.00000020  00000-0  00000-0 0  9992
2 44113   0.0394 311.9794 0004121  32.1084  15.8934  5.00115269 15758
O3B FM17                
1 44114U 19020C   20045.58644738 -.00000023  00000-0  00000-0 0  9998
2 44114   0.0458   5.3361 0002844 322.1140  32.5263  5.00116018 15854
O3B FM18                
1 44115U 19020D   20043.33425527 -.00000020  00000-0  00000-0 0  9990
2 44115   0.0444   4.7609 0002872 318.3944  36.8191  5.00115610 15740
